********************************************************************************
                       COMISION FEDERAL DE ELECTRICIDAD
                 Gerencia de Ingenieria Experimental y Control
    Augusto Rodin #265, Col. Nochebuena, Benito Juarez 03720, Mexico, D.F.
            Tel.(52-5) 229-44-00 ext. 6599     Fax. (52-5) 230-92-72   
********************************************************************************
ARCHIVO ESTANDAR DE ACELERACION:
VERSION DEL FORMATO                    : 2.0
NOMBRE DEL ARCHIVO                     : IN187903.141
FECHA Y HORA DE CREACION               : Tue Nov 26 14:02:52 1996
REF. CATALOGO ACELEROGRAMAS, SMIS 1995 : REGISTRO No.     /PAG.


================================================================================
DATOS DE LA ESTACION:
NOMBRE DE LA ESTACION                  : INFIERNILLO CORONA CENTRO
CLAVE DE LA ESTACION                   : IN18
LOCALIZACION DE LA ESTACION            : PRESA EL INFIERNILLO, RIO BALSAS,
                                       : MICHOACAN-GUERRERO
                                       :
                                       :
                                       :
COORDENADAS DE LA ESTACION             : 18.283 LAT. N 
                                       : 101.900 LONG. W
ALTITUD (msnm)                         : 180 
TIPO DE SUELO                          : SOBRE EL CUERPO DE LA PRESA, EN LA
                                       : FRONTERA ENTRE EL NUCLEO DE ARCILLA Y
                                       : EL ENROCAMIENTO
INSTITUCION RESPONSABLE                : CFE - GIEC
                                       :

================================================================================
DATOS DEL ACELEROGRAFO: 
MODELO DEL ACELEROGRAFO                : AR-240
NUMERO DE SERIE DEL ACELEROGRAFO       : 0121
NUMERO DE CANALES                      : 3
ORIENTACION C1-C6 (rumbo;orientacion)  : /V/N70E/N20W
ORIENTACION C7-C12 (rumbo;orientacion) :
VEL. DE MUESTREO, C1-C6 (muestras/s)   : 
VEL. DE MUESTREO, C7-C12 (muestras/s)  :
ESC. COMPLETA DE SENSORES, C1-C6, (g)  : /1.00/1.00/1.00
ESC. COMPLETA DE SENSORES, C7-C12 (g)  :
FREC. NAT. DE SENSORES, C1-C6, (Hz)    : /25.9/26.4/26.5
FREC. NAT. DE SENSORES, C7-C12 (Hz)    :
AMORTIGUAMIENTO DE SENSORES, C1-C6     : /0.60/0.60/0.60
AMORTIGUAMIENTO DE SENSORES, C7-C12    :
INTERVALO DE MUESTREO, C1-C6 (s)       : /0.02/0.02/0.02
INTERVALO DE MUESTREO, C7-C12 (s)      :
UMBRAL DE DISPARO, C1-C6 (Gal)         : /4/4/4
UMBRAL DE DISPARO, C7-C12 (Gal)        :
MEMORIA DE PREEVENTO (s)               : 0 
TIEMPO DE POSEVENTO (s)                : 7 


================================================================================
DATOS DEL SISMO:
FECHA DEL SISMO (GMT)                  : 14/MAR/79
HORA EPICENTRO (GMT)                   : 11:07:14,6
MAGNITUD(ES)                           : /Mb=7.00
COORDENADAS DEL EPICENTRO              : 17.490 LAT. N 
                                       : 101.260 LONG. W
PROFUNDIDAD FOCAL (km)                 : < 5
FUENTES DE LOS DATOS EPICENTRALES      : SSN
                                       : INSTITUTO DE GEOFISICA, UNAM

================================================================================
DATOS DE ESTE REGISTRO:
HORA DE LA PRIMERA MUESTRA (GMT)       :     
EXACTITUD DEL TIEMPO (s)               :     
DURACION DEL REGISTRO (s), C1-C6       : /67.66/67.66/67.66                      
DURACION DEL REGISTRO (s), C7-C12      : 
NUM. TOTAL DE MUESTRAS, C1-C6          : /3383/3383/3383                       
NUM. TOTAL DE MUESTRAS, C7-C12         : 
ACEL. MAX.(Gal), C1-C6                 : /327.85/-324.78/354.89                
ACEL. MAX., C1-C6, EN LA MUESTRA       : /1326/1411/1278                       
ACEL. MAX.(Gal), C7-C12                : 
ACEL. MAX., C7-C12,EN LA MUESTRA       : 
UNIDADES DE LOS DATOS                  : Gal (cm/s/s)
FACTOR DE DECIMACION                   : 1
FORMATO DATOS (FORTRAN,10 campos/dato) : 3F10.2


================================================================================
CALIDAD DEL ACELEROGRAMA:
REGISTRO ANALOGICO AL QUE FALTA UNA PARTE AL INICIO SIN TIEMPO
ABSOLUTO. DIGITALIZACION SEMIAUTOMATICA O MANUAL.

================================================================================
COMENTARIOS:














================================================================================
DATOS DE ACELERACION:
---------+---------+---------+---------+---------+---------+---------+---------+
   CANAL-1   CANAL-2   CANAL-3
         V      N70E      N20W
---------+---------+---------+---------+---------+---------+---------+---------+
[...]
     11.15     -6.13      4.69
     12.07    -10.19     15.51
     24.47    -10.28     32.72
     27.81     -4.48     51.17
     30.58      6.34     62.59
     37.03     19.45     65.72
     26.86     28.89     61.62
     -3.09     35.99     45.42
    -40.23     42.58     20.42
    -65.58     46.51     -7.70
    -56.49     45.97    -31.82
    -27.85     40.20    -49.86
    -13.43     29.21    -65.04
    -13.28     15.20    -75.52
     -9.03     -2.38    -80.78
     -0.34    -20.25    -80.59
      0.44    -29.50    -76.25
     -6.47    -27.32    -68.51
    -13.03    -14.85    -59.43
    -17.26      4.30    -52.51
    -26.45     20.80    -46.48
    -38.15     28.68    -38.93
    -27.00     31.39    -25.95
      8.39     27.93     -9.62
     41.84     12.94     19.60
     53.41     -9.28     55.49
     40.56    -29.75     98.18
     23.98    -43.46    132.47
     17.53    -51.36    148.98
     14.19    -55.07    146.83
     13.23    -54.35    136.06
     18.96    -50.01    111.42
     22.28    -42.01     81.49
     16.86    -26.84     30.46
     14.58     -8.16    -52.69
     15.40      7.93    -94.55
     12.15     23.27   -110.64
      6.72     35.12   -119.45
     -6.69     36.72   -123.33
    -26.12     30.40   -118.79
    -42.66     28.55   -105.86
    -50.21     34.23    -89.72
    -41.18     42.79    -66.97
    -19.01     50.05    -33.16
      9.50     52.03      6.64
     26.76     49.48     34.86
     22.89     36.42     49.89
     10.96     16.31     55.71
     -3.39     -2.04     52.20
    -11.04    -10.79     40.74
    -15.59     -2.02     28.54
    -32.71      7.86     26.38
    -39.82      3.59     33.10
     -5.50    -15.39     42.66
     52.51    -36.83     53.05
     91.67    -41.80     59.21
     91.81    -29.48     61.35
     66.13    -15.11     58.75
     46.18    -13.63     49.02
     31.05    -22.18     34.84
      5.13    -32.32     19.72
    -26.14    -39.00      4.26
    -51.93    -33.61     -7.34
    -53.26    -19.88    -14.53
    -29.58     -8.45    -19.97
     -1.76     -1.87    -26.60
     13.93     -1.90    -31.81
     16.67     -6.56    -31.38
     12.91     -5.16    -25.90
      7.45     -0.12    -17.36
      9.48     -1.91     -7.19
     18.73     -2.98     -3.32
     37.73      3.27    -12.54
     59.53      8.77    -27.69
     51.99     10.66    -43.85
     17.11      7.22    -55.42
    -20.87     -0.75    -70.51
    -58.37     -5.37    -85.43
    -83.58     -6.64    -89.90
    -89.27    -10.37    -84.03
    -81.93    -15.12    -68.28
    -49.26    -13.07    -48.91
      3.43     -3.33    -28.52
     39.55      7.30     -8.19
     46.86     13.07     12.18
     36.21      8.92     32.53
      8.87     -5.47     50.49
    -28.11    -19.39     61.57
    -55.39    -25.80     63.74
    -34.80    -30.31     54.72
     32.62    -29.02     39.07
     71.47    -19.63     21.56
     59.15    -10.66      3.83
     31.31     -2.43    -13.90
      2.51      8.15    -28.57
    -15.14     20.25    -37.91
    -18.72     27.45    -43.60
    -11.73     18.46    -43.01
     -0.04     -0.28    -33.47
      5.82    -13.61    -17.90
      5.66    -22.36     -0.82
      1.80    -31.09     17.14
     -9.21    -36.89     30.66
    -28.24    -33.48     44.61
    -46.06    -23.47     67.35
    -49.79    -15.09     93.93
    -35.53    -11.29    122.40
    -12.00    -13.99    146.75
      8.45    -21.99    155.14
     18.86    -28.07    140.97
     10.33    -23.09    112.93
    -11.78    -10.69     81.27
    -25.62      6.03     49.02
    -20.73     29.46     16.85
     -6.04     49.67    -14.85
      8.13     58.42    -35.14
     32.18     58.40    -41.30
     64.10     52.72    -39.66
     71.92     48.83    -37.95
     54.37     53.80    -40.98
     33.06     61.68    -45.37
     12.55     64.18    -51.22
      0.90     55.53    -60.12
      0.70     38.38    -71.12
     -5.07     15.91    -80.94
    -19.05    -10.11    -83.65
    -31.83    -26.45    -81.34
    -43.90    -31.89    -77.96
    -57.64    -29.46    -74.50
    -74.43    -20.56    -71.25
    -91.04    -11.54    -69.99
   -101.98     -7.35    -65.68
   -110.17    -16.83    -51.38
    -98.39    -37.10    -30.42
    -57.63    -59.84     -7.80
    -12.13    -77.24     15.32
     30.02    -82.49     37.63
     53.56    -70.18     51.25
     49.01    -37.61     51.68
     38.79      0.79     39.64
     35.20     31.94     23.25
     48.21     40.42     12.31
     61.79     25.65      5.25
     50.49      7.68     -3.52
     23.68     -7.19    -13.41
      0.71    -10.69    -19.81
     -4.46     -2.43    -22.07
      0.78      8.64    -22.29
      6.75     15.70    -22.97
      5.78     19.63    -22.71
     -6.64     34.01    -19.63
    -22.07     60.56    -13.07
    -47.76     83.91     -8.50
    -81.77     96.53      0.17
   -108.27    104.83     25.40
    -97.39    100.90     58.05
    -46.26     80.51     93.35
      9.47     51.89    128.13
     64.47     22.53    162.83
     93.61      6.83    185.93
     82.76      0.41    190.93
     65.02     -8.78    164.47
     65.87    -22.12    117.08
     93.02    -35.03     65.63
    115.71    -44.50      1.05
    101.89    -43.74    -47.42
     60.34    -30.48    -77.99
     13.45    -21.69    -99.61
    -33.51    -22.44   -113.79
    -56.33    -25.53   -118.08
    -35.61    -25.05   -108.83
     -4.58    -20.50    -92.21
     11.35    -20.25    -74.05
      8.15    -31.95    -56.95
     -4.08    -47.06    -41.62
    -20.23    -57.94    -28.99
    -44.97    -65.56    -18.95
    -66.25    -56.01    -14.35
    -72.03    -24.13    -16.11
    -59.52     40.34    -21.95
    -33.19     99.10    -28.29
    -11.56    109.41    -34.40
     -3.83    114.68    -39.52
     10.94    119.76    -42.19
     35.80    109.15    -41.33
     52.41     89.27    -36.20
     45.85     63.04    -32.56
     16.04     41.40    -31.09
     12.92     14.71    -27.75
     52.46     -7.84    -16.57
     84.18    -17.82     -0.93
     83.96    -28.05     12.58
     69.86    -41.72     19.77
     67.36    -57.36     31.44
     74.72    -70.08     51.86
     70.19    -81.19     73.40
     58.38    -92.05     78.70
     43.38   -100.96     40.40
     20.17   -109.55     -1.87
      6.94   -119.39    -34.84
    -10.06   -125.27    -65.32
    -54.88   -115.67    -93.46
   -107.52    -91.54   -117.10
   -157.07    -67.53   -127.60
   -193.75    -55.65   -119.97
   -200.88    -51.14    -97.01
   -168.98    -51.11    -70.15
   -110.26    -53.42    -41.79
    -54.00    -46.96    -13.98
      0.95    -35.09     14.19
     54.19    -25.66     42.59
     73.06    -18.72     75.44
     39.94    -11.06    110.64
     -3.40     -0.66    146.56
     12.75      9.74    182.57
     97.75     23.01    214.35
    205.30     39.62    238.80
    273.63     55.53    244.53
    274.17     72.28    219.77
    241.57     90.55    175.30
    193.95    103.97    121.79
    131.30    112.75     67.74
     69.08    121.59      8.94
      6.90    128.12    -36.01
    -55.28    130.96    -55.51
   -117.69    127.06    -65.25
   -179.93    117.01    -70.21
   -242.24    109.68    -73.81
   -291.08    104.71    -74.94
   -303.66     97.45    -74.87
   -284.75     87.61    -70.82
   -234.58     75.36    -59.40
   -157.30     60.15    -43.33
    -75.50     41.51    -19.16
    -10.04     22.95     19.31
     33.33     10.57     51.00
     75.95      2.44     88.11
    103.43    -14.04    123.28
     86.59    -46.69    127.82
     46.17    -90.37    109.26
     17.08   -142.68     80.98
     15.90   -195.55     55.09
     37.89   -228.65     21.19
     78.47   -241.66    -26.60
    130.82   -229.69    -82.01
    176.98   -188.16   -133.99
    188.86   -148.91   -173.26
    147.45   -122.12   -206.02
     79.62    -93.01   -235.92
      7.04    -61.99   -252.95
    -51.58    -38.04   -258.58
    -81.85    -29.49   -250.61
   -100.07    -32.56   -225.90
    -96.12    -36.40   -194.89
    -71.75    -35.61   -162.25
    -55.80    -30.73   -129.72
    -66.31    -18.41    -97.23
   -106.29      0.87    -64.65
   -156.50     31.63    -32.09
   -204.50     89.50      4.79
   -217.78    161.20     36.39
   -172.25    209.49     60.00
    -99.11    227.01     87.45
    -22.83    233.81    118.89
     53.12    235.64    151.71
    114.67    221.83    184.70
    135.56    187.74    217.47
    125.80    142.37    250.75
    109.76    103.10    277.23
     82.83     72.29    276.43
     53.47     40.88    250.64
     35.40      9.26    216.19
     37.65    -22.89    180.03
     55.51    -53.40    143.98
     67.81    -74.07    107.85
     79.17    -68.65     71.73
     95.26    -28.52     35.62
    100.40     11.40     -0.56
     84.80     29.46    -36.64
     59.22     27.48    -72.89
     40.46      1.46   -108.91
     30.42    -35.00   -145.23
     18.93    -69.36   -181.16
      0.79    -87.29   -217.68
    -19.15    -81.62   -252.61
    -42.97    -67.48   -274.98
    -63.71    -44.29   -269.33
    -62.29    -19.52   -232.06
    -41.10     -5.73   -182.13
      0.65     -1.57   -129.50
     67.70     -7.49    -76.66
    134.95    -16.26    -24.09
    163.55    -34.34     28.92
    141.86    -64.40     81.34
     84.07    -85.04    134.63
      8.73    -78.51    186.66
    -67.91    -51.92    240.99
   -134.91    -27.07    281.49
   -186.92     -3.78    293.03
   -216.82     12.29    276.80
   -201.04     16.35    240.94
   -143.93      4.41    200.74
    -96.75    -34.93    159.14
    -73.07    -85.26    118.02
    -47.80   -130.97     76.68
    -10.93   -168.78     35.45
     37.77   -188.67     -5.73
     76.35   -185.72    -46.91
     74.76   -149.86    -90.46
     31.21    -80.06   -143.40
    -35.32    -14.77   -184.37
    -70.60     29.47   -210.38
    -47.12     65.47   -230.49
      9.11     86.64   -250.34
     79.01    101.04   -269.33
    145.26    114.01   -289.38
    176.38    112.22   -307.29
    150.64     97.72   -324.21
     94.90     70.07   -318.61
     43.01     36.19   -255.35
      4.57     17.11   -193.36
    -15.18     16.57   -152.66
    -27.30     27.38   -117.69
    -34.75     45.09    -75.94
    -27.00     86.21    -28.55
      2.55    130.39     19.44
     41.74    139.26     68.03
     64.31    132.60    116.33
     61.81    121.01    164.74
     37.23    106.11    213.44
    -21.93     98.64    261.40
   -105.23     98.70    311.29
   -185.86    101.59    347.41
   -259.38     97.49    354.89
   -293.04     89.99    348.80
   -257.51     84.86    328.61
   -184.33     78.90    303.57
   -104.77     63.53    276.54
    -40.85     33.63    249.90
     -4.82     -0.20    222.98
     24.37    -25.48    196.36
     55.89    -52.68    169.13
     71.82    -89.30    136.01
     67.38   -128.51    105.13
     65.09   -168.83     77.97
     80.38   -213.40     51.71
    102.58   -251.63     25.69
    130.72   -274.92     -3.99
    164.99   -287.47    -36.47
    196.28   -277.09    -69.95
    217.10   -248.82   -103.44
    225.00   -185.11   -136.99
    221.16   -104.49   -170.45
    193.70    -56.51   -204.01
    137.95      7.50   -236.68
     71.77     71.50   -255.29
     12.87     94.12   -259.11
    -35.86    109.00   -251.51
    -81.15    123.84   -236.40
   -109.93    140.51   -219.71
   -114.84    157.42   -202.35
   -108.73    174.05   -185.30
    -91.82    189.39   -168.01
    -68.22    195.63   -150.91
    -45.90    187.14   -133.66
    -32.89    161.24   -116.53
    -41.07    133.53    -99.33
    -69.50    106.03    -82.17
   -108.83     75.61    -65.03
   -137.76     48.50    -47.84
   -147.27     30.07    -30.75
   -144.31     23.12    -13.54
   -142.14     26.04      3.48
   -147.94     33.61     20.73
   -152.03     37.45     37.68
   -141.55     39.79     54.96
    -85.48      6.00     71.83
      7.43    -59.58     89.15
     97.75   -110.57    105.89
    185.95   -165.48    124.14
    272.69   -213.80    144.39
    327.85   -250.72    166.08
    323.23   -269.94    187.55
    271.21   -245.91    209.69
    192.97   -211.94    225.36
    100.33   -180.90    204.54
      8.30   -156.35    149.38
    -46.80   -135.67     86.66
    -56.69   -111.95     45.30
    -67.17    -90.86     23.91
    -83.33    -61.22      7.43
   -100.23    -15.57     -7.73
   -119.95     53.97    -22.78
   -138.95    121.57    -45.22
   -159.53    158.50    -91.88
   -171.32    180.28   -155.34
   -173.27    190.69   -196.03
   -140.86    203.05   -213.31
    -70.01    224.36   -210.56
      3.90    238.17   -189.05
     76.54    245.24   -162.40
    144.95    219.19   -131.91
    187.57    166.99    -97.29
    176.64    127.20    -62.26
    129.26     78.02    -30.32
     84.08     21.92     -1.01
     46.69    -10.19     29.03
     24.03    -24.11     53.41
      3.56    -29.94     73.57
    -25.75    -18.60     89.46
    -53.98      5.61    109.80
    -82.41     16.41    131.78
   -111.47     13.85    160.52
   -126.52      2.23    183.17
    -95.19    -23.75    216.44
    -32.24    -51.94    216.39
     28.28   -118.42    144.24
     72.31   -217.63    118.98
     75.56   -262.14    125.05
     50.96   -266.53    142.12
     20.00   -271.01    163.14
    -19.60   -268.03    183.43
    -54.22   -265.44    216.49
    -63.49   -256.87    150.79
    -48.09   -237.29     59.04
    -25.71   -203.43     12.64
     -0.09   -167.84    -17.15
     28.77   -133.49    -34.00
     57.47    -97.14    -54.27
     72.65    -63.80    -72.76
     54.41    -26.48   -101.01
     10.26      5.97   -127.28
    -44.20     66.12   -152.17
    -91.97    127.71   -174.99
   -102.08    133.81   -200.62
    -79.47    129.50   -228.60
    -49.76    133.21   -257.01
    -27.75    145.86   -286.50
    -26.97    169.85   -310.99
    -45.84    209.51   -324.90
    -63.54    256.09   -310.71
    -39.23    273.00   -250.41
     24.27    270.15   -174.07
     81.42    260.41   -104.12
    118.32    252.08    -53.60
    136.89    245.07    -13.47
    146.73    230.74     21.72
    140.54    213.57     59.94
    113.45    197.34    101.18
     76.32    181.73    128.34
     31.98    165.93    147.32
    -16.02    152.39    158.54
    -69.57    140.78    161.59
   -121.74    129.49    157.80
   -168.36    107.76    149.13
   -200.41     81.20    138.32
   -204.48     24.26    138.19
   -191.73    -61.00    145.05
   -165.00   -116.33    155.49
   -122.09   -152.47    168.67
    -68.78   -182.53    181.76
    -13.07   -209.90    185.03
     33.82   -240.10    170.21
     69.93   -267.49    145.94
    104.17   -293.05    116.86
    139.51   -311.74     86.42
    170.20   -324.78     55.15
    186.04   -319.44     24.13
    178.79   -300.27     -8.52
    163.04   -262.84    -41.84
    156.01   -208.93    -76.15
    141.50   -166.29   -106.68
    110.04   -129.63   -125.66
     78.23    -96.50   -139.09
     48.92    -64.60   -150.81
     16.59    -28.77   -161.88
