********************************************************************************
                       INSTITUTO DE INGENIERIA, UNAM
                   Coordinacion de Instrumentacion Sismica
  Ciudad Universitaria, Apartado Postal 70-472, Coyoacan 04510, Mexico, D.F.
 Tel.(52-5)622-3414    Fax.(52-5)616-1514    e-mail: isismica@pumas.iingen.unam.mx
**************************************************************************************
ARCHIVO ESTANDAR DE ACELERACION:
VERSION DEL FORMATO                    : 2.0
NOMBRE DEL ARCHIVO                     : SCT18509.191
FECHA Y HORA DE CREACION               : Wed Feb 26 14:42:54 1997
REF. CATALOGO ACELEROGRAMAS, SMIS 1995 : REGISTRO NO.      /PAG.    


================================================================================
DATOS DE LA ESTACION:
NOMBRE DE LA ESTACION                  : SCT B-1
CLAVE DE LA ESTACION                   : SCT1
LOCALIZACION DE LA ESTACION            : Estacionamiento en el Edificio de SCT,
                                       : Av. Universidad entre Cumbres de 
                                       : Maltrata y Xola, Col. Narvarte,
                                       : Mexico, D.F.
                                       :
COORDENADAS DE LA ESTACION             : 19.3930 LAT. N
                                       : 99.1470 LONG. W
ALTITUD (msnm)                         : 2240
TIPO DE SUELO                          : Arcilla
                                       :
                                       :
INSTITUCION RESPONSABLE                : INSTITUTO DE INGENIERIA UNAM
                                       :

================================================================================
DATOS DEL ACELEROGRAFO: 
MODELO DEL ACELEROGRAFO                : DCA-333
NUMERO DE SERIE DEL ACELEROGRAFO       : 144
NUMERO DE CANALES                      : 3
ORIENTACION C1-C6 (rumbo;orientacion)  : /V/N90E/N00E
ORIENTACION C7-C12 (rumbo;orientacion) :
VEL. DE MUESTREO, C1-C6 (muestras/s)   : /100/100/100
VEL. DE MUESTREO, C7-C12 (muestras/s)  :
ESC. COMPLETA DE SENSORES, C1-C6, (g)  : /2/2/2
ESC. COMPLETA DE SENSORES, C7-C12 (g)  :
FREC. NAT. DE SENSORES, C1-C6, (Hz)    : /30/30/30
FREC. NAT. DE SENSORES, C7-C12 (Hz)    :
AMORTIGUAMIENTO DE SENSORES, C1-C6     : /0.66/0.70/0.75
AMORTIGUAMIENTO DE SENSORES, C7-C12    :
INTERVALO DE MUESTREO, C1-C6 (s)       : /0.01/0.01/0.01
INTERVALO DE MUESTREO, C7-C12 (s)      :
UMBRAL DE DISPARO, C1-C6 (Gal)         : /4/4/4
UMBRAL DE DISPARO, C7-C12 (Gal)        :
MEMORIA DE PREEVENTO (s)               : 4
TIEMPO DE POSEVENTO (s)                : 15


================================================================================
DATOS DEL SISMO:
FECHA DEL SISMO [GMT]                  : 19 de Septiembre de 1985
HORA EPICENTRO (GMT)                   : 13:17:42,6
MAGNITUD(ES)                           : /Mb=6.80/Ms=8.10/Mc=8.10
COORDENADAS DEL EPICENTRO              : 18.081 LAT. N
                                       : 102.942 LONG. W
PROFUNDIDAD FOCAL (km)                 : 15
FUENTES DE LOS DATOS EPICENTRALES      : INSTITUTO DE INGENIERIA,UNAM 
                                       : 

================================================================================
DATOS DE ESTE REGISTRO:
HORA DE LA PRIMERA MUESTRA (GMT)       : 13:19:43 
EXACTITUD DEL TIEMPO (s)               :
DURACION DEL REGISTRO (s), C1-C6       : /183.51/183.51/183.51                   
DURACION DEL REGISTRO (s), C7-C12      : 
NUM. TOTAL DE MUESTRAS, C1-C6          : /18351/18351/18351                    
NUM. TOTAL DE MUESTRAS, C7-C12         : 
ACEL. MAX.(Gal), C1-C6                 : /-35.81/161.63/93.78                  
ACEL. MAX., C1-C6, EN LA MUESTRA       : /5439/5836/5440                       
ACEL. MAX.(Gal), C7-C12                : 
ACEL. MAX., C7-C12,EN LA MUESTRA       : 
UNIDADES DE LOS DATOS                  : Gal (cm/s/s)
FACTOR DE DECIMACION                   : 1
FORMATO DATOS (FORTRAN,10 campos/dato) : 3F10.2


================================================================================
CALIDAD DEL ACELEROGRAMA:
REGISTRO DIGITAL COMPLETO CON TIEMPO ABSOLUTO CORRECTO


================================================================================
COMENTARIOS:














================================================================================
DATOS DE ACELERACION:
---------+---------+---------+---------+---------+---------+---------+---------+
   CANAL-1   CANAL-2   CANAL-3
         V      N90E      N00E
---------+---------+---------+---------+---------+---------+---------+---------+
[...]
     -9.02    -28.82      1.90
     -8.06    -28.82      0.94
     -6.15    -29.77     -0.97
     -4.23    -29.77     -1.93
     -3.28    -31.69     -3.84
     -3.28    -33.60     -6.71
     -1.36    -32.64     -8.63
     -0.40    -31.69     -9.58
     -1.36    -31.69    -12.45
     -2.32    -32.64    -15.33
     -1.36    -32.64    -17.24
     -0.40    -32.64    -19.15
     -0.40    -32.64    -22.02
     -0.40    -33.60    -22.98
      1.51    -33.60    -23.94
     -0.40    -32.64    -25.85
     -1.36    -30.73    -25.85
     -0.40    -27.86    -25.85
      1.51    -26.90    -26.81
      2.47    -25.95    -28.72
      3.42    -24.99    -27.77
      3.42    -24.99    -25.85
      2.47    -24.03    -26.81
      2.47    -24.03    -28.72
      4.38    -23.07    -27.77
      6.29    -22.12    -27.77
      4.38    -23.07    -29.68
      3.42    -23.07    -28.72
      4.38    -22.12    -28.72
      4.38    -21.16    -29.68
      3.42    -21.16    -31.59
      4.38    -21.16    -32.55
      4.38    -20.20    -34.47
      5.34    -18.29    -36.38
      4.38    -18.29    -37.34
      4.38    -20.20    -38.29
      4.38    -17.33    -39.25
      5.34    -16.38    -41.16
      5.34    -16.38    -42.12
      5.34    -16.38    -44.04
      5.34    -14.46    -45.95
      6.29    -11.59    -46.91
      7.25    -10.63    -48.82
      7.25     -8.72    -51.69
      8.21     -6.80    -52.65
      8.21     -4.89    -50.74
      8.21     -2.98    -49.78
      9.17     -1.06    -51.69
     10.12      0.85    -51.69
     10.12      2.77    -49.78
     11.08      4.68    -48.82
     10.12      6.59    -47.86
     10.12      7.55    -47.86
     10.12      9.46    -45.95
      9.17     11.38    -44.04
      9.17     11.38    -44.04
      7.25     13.29    -44.04
      6.29     15.21    -40.21
      6.29     17.12    -38.29
      5.34     19.04    -38.29
      3.42     20.95    -36.38
      2.47     23.82    -33.51
      1.51     25.73    -31.59
      1.51     28.61    -32.55
     -0.40     30.52    -31.59
     -1.36     33.39    -30.64
     -1.36     35.30    -29.68
     -2.32     38.18    -27.77
     -3.28     41.05    -27.77
     -3.28     42.96    -26.81
     -3.28     45.83    -25.85
     -3.28     46.79    -27.77
     -3.28     47.75    -28.72
     -2.32     50.62    -27.77
     -2.32     53.49    -26.81
     -0.40     52.53    -26.81
     -0.40     54.45    -28.72
      0.55     57.32    -28.72
      1.51     58.27    -26.81
      3.42     59.23    -25.85
      3.42     61.14    -24.90
      5.34     63.06    -22.98
      6.29     64.02    -20.11
      6.29     65.93    -18.20
      6.29     68.80    -14.37
      6.29     69.76    -12.45
      8.21     69.76    -11.50
      8.21     70.71    -10.54
      6.29     72.63     -8.63
      6.29     73.59     -6.71
      8.21     74.54     -4.80
      8.21     74.54     -3.84
      7.25     75.50     -2.88
      7.25     77.41     -0.01
      8.21     78.37      1.90
     10.12     80.29      2.86
     10.12     81.24      2.86
     10.12     81.24      4.77
     12.04     81.24      5.73
     12.99     84.11      5.73
     12.99     85.07      6.69
     14.91     86.98      8.60
     13.95     87.94     10.51
     14.91     87.94     11.47
     15.86     88.90     11.47
     16.82     88.90     14.34
     15.86     90.81     16.26
     14.91     91.77     18.17
     15.86     90.81     20.09
     15.86     92.73     21.04
     15.86     90.81     21.04
     13.95     91.77     21.04
     13.95     91.77     22.96
     14.91     91.77     22.96
     14.91     90.81     22.00
     13.95     89.86     22.00
     12.04     88.90     22.96
     12.04     88.90     22.96
     12.04     87.94     23.91
     11.08     86.98     23.91
     10.12     84.11     24.87
      9.17     83.16     25.83
      9.17     81.24     27.74
      8.21     79.33     27.74
      7.25     78.37     29.66
      5.34     75.50     32.53
      3.42     72.63     34.44
      1.51     70.71     36.35
      0.55     68.80     36.35
     -0.40     66.89     37.31
     -2.32     63.06     39.23
     -3.28     59.23     38.27
     -5.19     57.32     38.27
     -6.15     56.36     37.31
     -6.15     54.45     36.35
     -6.15     52.53     33.48
     -5.19     50.62     33.48
     -5.19     48.70     33.48
     -6.15     47.75     33.48
     -7.10     44.88     32.53
     -5.19     42.96     30.61
     -5.19     41.05     30.61
     -6.15     39.13     29.66
     -6.15     37.22     30.61
     -6.15     34.35     32.53
     -6.15     31.48     33.48
     -6.15     29.56     33.48
     -7.10     25.73     33.48
     -9.02     20.95     40.18
    -11.89     18.08     36.35
    -13.80     15.21     33.48
    -10.93     12.34     38.27
     -6.15      8.51     38.27
     -7.10      5.64     36.35
    -12.85      2.77     38.27
    -15.72     -0.11     38.27
    -13.80     -3.93     38.27
    -12.85     -7.76     37.31
    -13.80    -11.59     38.27
    -15.72    -15.42     37.31
    -17.63    -16.38     34.44
    -18.59    -19.25     33.48
    -17.63    -22.12     33.48
    -18.59    -24.99     34.44
    -21.46    -28.82     31.57
    -22.42    -32.64     29.66
    -22.42    -36.47     28.70
    -22.42    -39.34     27.74
    -21.46    -44.13     27.74
    -21.46    -47.96     27.74
    -22.42    -51.79     24.87
    -23.37    -56.57     22.96
    -21.46    -60.40     22.00
    -21.46    -64.23     22.00
    -21.46    -69.01     21.04
    -19.55    -72.84     19.13
    -18.59    -75.71     18.17
    -18.59    -78.58     16.26
    -15.72    -82.41     14.34
    -12.85    -86.24     11.47
    -13.80    -90.07     10.51
    -12.85    -92.94      8.60
     -9.98    -95.81      6.69
     -9.02   -100.59      5.73
     -9.02   -101.55      5.73
     -8.06   -103.46      3.82
     -6.15   -104.42      1.90
     -4.23   -106.34      0.94
     -2.32   -109.21     -0.97
     -3.28   -112.08     -0.97
     -2.32   -115.91     -1.93
     -0.40   -117.82     -4.80
      0.55   -117.82     -7.67
      1.51   -118.78     -8.63
      2.47   -120.69     -9.58
      2.47   -122.61    -10.54
      2.47   -123.56    -11.50
      3.42   -125.48    -13.41
      6.29   -127.39    -14.37
      8.21   -128.35    -15.33
      8.21   -129.30    -17.24
      9.17   -130.26    -18.20
      9.17   -130.26    -19.15
      8.21   -131.22    -21.07
      9.17   -131.22    -23.94
     10.12   -131.22    -25.85
     10.12   -131.22    -26.81
     10.12   -129.30    -30.64
     12.99   -128.35    -32.55
     13.95   -126.43    -34.47
     13.95   -124.52    -36.38
     14.91   -125.48    -37.34
     16.82   -126.43    -37.34
     16.82   -127.39    -38.29
     15.86   -129.30    -38.29
     14.91   -130.26    -37.34
     16.82   -131.22    -38.29
     15.86   -131.22    -38.29
     12.99   -130.26    -39.25
     12.04   -129.30    -41.16
     12.04   -129.30    -42.12
     13.95   -129.30    -43.08
     14.91   -129.30    -44.04
     13.95   -129.30    -44.04
      9.17   -129.30    -44.04
      5.34   -129.30    -44.04
      4.38   -129.30    -44.04
      4.38   -129.30    -44.99
      5.34   -127.39    -44.99
      5.34   -127.39    -44.99
      7.25   -124.52    -44.99
      6.29   -121.65    -44.99
      3.42   -118.78    -44.99
      2.47   -115.91    -44.99
      6.29   -113.04    -44.04
      9.17   -110.16    -44.04
      7.25   -110.16    -44.99
      0.55   -109.21    -44.04
     -1.36   -108.25    -42.12
     -2.32   -105.38    -43.08
     -1.36   -102.51    -42.12
      1.51    -99.64    -41.16
      6.29    -96.77    -41.16
      4.38    -91.98    -41.16
     -4.23    -89.11    -41.16
     -3.28    -84.32    -38.29
      6.29    -79.54    -38.29
     10.12    -74.75    -39.25
      5.34    -69.97    -39.25
      2.47    -67.10    -41.16
      1.51    -67.10    -42.12
      0.55    -67.10    -41.16
      3.42    -63.27    -38.29
     10.12    -57.53    -36.38
     12.04    -52.74    -34.47
      9.17    -46.04    -34.47
      6.29    -38.39    -34.47
      6.29    -31.69    -33.51
      7.25    -25.95    -33.51
     11.08    -18.29    -33.51
     12.99    -13.50    -32.55
     12.04     -8.72    -31.59
     11.08     -3.93    -30.64
      8.21      0.85    -28.72
      8.21      4.68    -26.81
     11.08     10.42    -25.85
     16.82     15.21    -24.90
     13.95     19.04    -24.90
      8.21     22.86    -22.98
     10.12     26.69    -22.02
     13.95     32.43    -22.02
     12.99     38.18    -21.07
     11.08     43.92    -19.15
     11.08     49.66    -17.24
     12.04     54.45    -17.24
     11.08     58.27    -16.28
      8.21     61.14    -14.37
      8.21     64.97    -12.45
     10.12     68.80    -11.50
     13.95     73.59    -10.54
     13.95     78.37     -9.58
     11.08     82.20     -6.71
      6.29     86.03     -4.80
      4.38     89.86     -2.88
      6.29     94.64     -0.97
     10.12     99.43      0.94
     11.08    104.21      3.82
      8.21    107.08      7.64
      3.42    109.00      8.60
     -0.40    111.87     10.51
      0.55    115.70     13.39
      3.42    119.52     17.21
      5.34    123.35     20.09
      3.42    125.27     22.00
      1.51    127.18     22.00
      0.55    129.09     22.96
     -1.36    131.96     25.83
     -1.36    133.88     29.66
     -1.36    136.75     32.53
     -2.32    138.66     33.48
     -2.32    139.62     34.44
     -1.36    139.62     34.44
     -2.32    140.58     34.44
     -3.28    142.49     38.27
     -4.23    143.45     39.23
     -5.19    142.49     40.18
     -5.19    142.49     39.23
     -2.32    143.45     38.27
      0.55    146.32     40.18
      0.55    147.28     40.18
     -1.36    146.32     40.18
     -4.23    146.32     39.23
     -5.19    148.23     40.18
     -5.19    148.23     41.14
     -3.28    148.23     42.10
     -0.40    147.28     42.10
      0.55    148.23     43.05
     -1.36    148.23     42.10
     -4.23    149.19     42.10
     -3.28    148.23     42.10
     -0.40    152.06     44.01
      1.51    153.98     44.01
      2.47    153.98     43.05
      0.55    153.02     42.10
     -0.40    153.98     43.05
     -0.40    156.85     43.05
     -0.40    158.76     44.97
     -2.32    157.80     47.84
     -2.32    155.89     47.84
     -0.40    157.80     45.93
     -1.36    157.80     45.93
     -5.19    157.80     46.88
     -5.19    158.76     48.80
     -2.32    161.63     51.67
     -1.36    161.63     52.62
     -1.36    156.85     51.67
     -2.32    157.80     50.71
     -5.19    155.89     49.75
     -4.23    150.15     43.05
     -2.32    150.15     37.31
     -2.32    148.23     41.14
     -2.32    138.66     47.84
     -2.32    130.05     44.01
     -5.19    124.31     38.27
     -7.10    123.35     41.14
     -8.06    116.65     46.88
     -7.10    108.04     46.88
     -7.10    103.25     44.01
     -8.06    102.30     42.10
     -6.15     99.43     41.14
     -5.19     96.55     39.23
     -6.15     95.60     34.44
     -4.23     93.68     30.61
     -3.28     89.86     26.78
     -7.10     88.90     26.78
     -9.02     86.98     30.61
     -8.06     83.16     30.61
     -6.15     77.41     22.96
     -9.98     73.59     19.13
    -13.80     66.89     21.04
    -14.76     58.27     22.96
    -15.72     52.53     20.09
    -12.85     45.83     14.34
     -9.98     41.05     12.43
     -8.06     36.26     13.39
     -8.06     28.61      9.56
    -11.89     19.99      7.64
    -16.67     13.29      8.60
    -15.72      7.55      5.73
    -10.93      1.81      1.90
     -8.06     -4.89     -2.88
     -9.02    -10.63     -2.88
     -8.06    -17.33     -3.84
     -8.06    -24.99     -6.71
     -9.02    -34.56     -7.67
    -10.93    -43.17     -8.63
    -11.89    -50.83    -12.45
    -12.85    -54.66    -10.54
    -11.89    -56.57     -8.63
    -10.93    -64.23    -11.50
    -13.80    -70.93    -12.45
    -15.72    -72.84    -11.50
    -18.59    -74.75    -10.54
    -19.55    -76.67     -8.63
    -19.55    -79.54     -7.67
    -19.55    -79.54     -9.58
    -19.55    -74.75    -11.50
    -21.46    -70.93    -11.50
    -23.37    -67.10    -12.45
    -21.46    -64.23    -14.37
    -19.55    -66.14    -15.33
    -17.63    -69.97    -14.37
    -15.72    -72.84    -18.20
    -13.80    -75.71    -21.07
    -12.85    -80.50    -23.94
    -11.89    -87.20    -26.81
    -10.93    -92.94    -24.90
     -9.02    -97.72    -24.90
     -7.10   -102.51    -25.85
     -6.15   -107.29    -26.81
     -5.19   -111.12    -27.77
     -4.23   -115.91    -29.68
     -4.23   -120.69    -32.55
     -4.23   -125.48    -35.42
     -7.10   -131.22    -34.47
     -9.02   -136.96    -33.51
     -9.02   -139.83    -35.42
     -8.06   -140.79    -38.29
     -9.98   -142.70    -40.21
    -11.89   -143.66    -41.16
    -14.76   -144.62    -41.16
    -14.76   -146.53    -42.12
    -14.76   -149.40    -38.29
    -12.85   -150.36    -35.42
    -11.89   -150.36    -38.29
    -10.93   -151.32    -40.21
     -9.98   -153.23    -40.21
     -9.98   -152.27    -40.21
     -9.02   -147.49    -42.12
     -8.06   -143.66    -45.95
     -5.19   -141.75    -50.74
     -5.19   -139.83    -53.61
     -6.15   -137.92    -56.48
     -7.10   -136.96    -60.31
     -8.06   -136.96    -62.22
     -7.10   -138.88    -63.18
     -4.23   -139.83    -65.09
     -1.36   -137.92    -68.92
      2.47   -136.00    -69.88
      3.42   -134.09    -68.92
      3.42   -134.09    -67.96
      4.38   -134.09    -67.00
      5.34   -134.09    -67.96
      7.25   -135.05    -67.96
      8.21   -136.00    -67.96
     11.08   -136.00    -68.92
     10.12   -136.96    -69.88
      8.21   -138.88    -69.88
      8.21   -138.88    -70.83
      9.17   -139.83    -69.88
      8.21   -140.79    -67.96
      6.29   -140.79    -67.00
      8.21   -140.79    -70.83
     11.08   -140.79    -74.66
      8.21   -138.88    -75.62
      5.34   -137.92    -75.62
      6.29   -135.05    -77.53
      7.25   -133.13    -79.45
      8.21   -131.22    -79.45
     10.12   -128.35    -80.40
     12.99   -127.39    -78.49
     12.04   -125.48    -75.62
     12.04   -123.56    -71.79
     13.95   -120.69    -69.88
     13.95   -118.78    -68.92
     13.95   -114.95    -66.05
     14.91   -110.16    -63.18
     17.78   -104.42    -62.22
     18.74    -97.72    -60.31
     18.74    -92.94    -59.35
     21.61    -89.11    -59.35
     22.56    -84.32    -58.39
     21.61    -79.54    -60.31
     19.69    -73.80    -60.31
     18.74    -71.88    -56.48
     25.44    -66.14    -60.31
     28.31    -54.66    -64.13
     21.61    -49.87    -53.61
     21.61    -48.91    -46.91
     25.44    -43.17    -49.78
     24.48    -35.52    -48.82
     24.48    -30.73    -44.04
     24.48    -29.77    -40.21
     27.35    -25.95    -36.38
     27.35    -22.12    -34.47
     24.48    -17.33    -32.55
     24.48    -16.38    -25.85
